{
  "type": "FeatureCollection",
  "features": [
    {
      "type": "Feature",
      "properties": {
        "norad_id": 32353,
        "name": "FENGYUN 1C DEB",
        "group": "fengyun-1c-debris",
        "lat": 44.96952915631613,
        "lon": 151.20732063122009,
        "alt_km": 963.4931632458656,
        "timestamp": "2025-12-09T16:56:36.861062+00:00",
        "meta_object_name": "FENGYUN 1C DEB",
        "meta_object_id": "1999-025CYW",
        "meta_epoch": "2025-12-09T06:27:26.911008",
        "meta_mean_motion": 14.03762056,
        "meta_eccentricity": 0.0125696,
        "meta_inclination": 98.922,
        "meta_ra_of_asc_node": 159.8067,
        "meta_arg_of_pericenter": 208.8783,
        "meta_mean_anomaly": 150.5388,
        "meta_ephemeris_type": 0,
        "meta_classification_type": "U",
        "meta_norad_cat_id": 32353,
        "meta_element_set_no": 999,
        "meta_rev_at_epoch": 63145,
        "meta_bstar": 0.00432,
        "meta_mean_motion_dot": 7.257e-05,
        "meta_mean_motion_ddot": 0,
        "tle_line1": "1 32353U 99025CYW 25343.26906147  .00007257  00000+0  43200-2 0  9994",
        "tle_line2": "2 32353  98.9220 159.8067 0125696 208.8783 150.5388 14.03762056631452"
      },
      "geometry": {
        "type": "Point",
        "coordinates": [
          151.20732063122009,
          44.96952915631613
        ]
      }
    },
    {
      "type": "Feature",
      "properties": {
        "norad_id": 32355,
        "name": "FENGYUN 1C DEB",
        "group": "fengyun-1c-debris",
        "lat": 47.51910569779922,
        "lon": -100.41601084663449,
        "alt_km": 440.76387191177764,
        "timestamp": "2025-12-09T16:56:36.861072+00:00",
        "meta_object_name": "FENGYUN 1C DEB",
        "meta_object_id": "1999-025CYY",
        "meta_epoch": "2025-11-30T13:45:12.852288",
        "meta_mean_motion": 15.2698689,
        "meta_eccentricity": 0.00340494,
        "meta_inclination": 100.3462,
        "meta_ra_of_asc_node": 258.4114,
        "meta_arg_of_pericenter": 91.868,
        "meta_mean_anomaly": 83.2659,
        "meta_ephemeris_type": 0,
        "meta_classification_type": "U",
        "meta_norad_cat_id": 32355,
        "meta_element_set_no": 999,
        "meta_rev_at_epoch": 64804,
        "meta_bstar": 0.0114101,
        "meta_mean_motion_dot": 0.00320062,
        "meta_mean_motion_ddot": 0,
        "tle_line1": "1 32355U 99025CYY 25334.57306542  .00320062  00000+0  11410-1 0  9992",
        "tle_line2": "2 32355 100.3462 258.4114 0034049  91.8680  83.2659 15.26986890648042"
      },
      "geometry": {
        "type": "Point",
        "coordinates": [
          -100.41601084663449,
          47.51910569779922
        ]
      }
    },
    {
      "type": "Feature",
      "properties": {
        "norad_id": 32356,
        "name": "FENGYUN 1C DEB",
        "group": "fengyun-1c-debris",
        "lat": -59.56161880562185,
        "lon": 2.653821153581904,
        "alt_km": 959.2069495436144,
        "timestamp": "2025-12-09T16:56:36.861082+00:00",
        "meta_object_name": "FENGYUN 1C DEB",
        "meta_object_id": "1999-025CYZ",
        "meta_epoch": "2025-12-09T02:06:15.807744",
        "meta_mean_motion": 14.03341813,
        "meta_eccentricity": 0.01250682,
        "meta_inclination": 102.4948,
        "meta_ra_of_asc_node": 203.9783,
        "meta_arg_of_pericenter": 24.3708,
        "meta_mean_anomaly": 336.3291,
        "meta_ephemeris_type": 0,
        "meta_classification_type": "U",
        "meta_norad_cat_id": 32356,
        "meta_element_set_no": 999,
        "meta_rev_at_epoch": 68336,
        "meta_bstar": 0.0026151622,
        "meta_mean_motion_dot": 4.309e-05,
        "meta_mean_motion_ddot": 0,
        "tle_line1": "1 32356U 99025CYZ 25343.08768296  .00004309  00000+0  26152-2 0  9990",
        "tle_line2": "2 32356 102.4948 203.9783 0125068  24.3708 336.3291 14.03341813683368"
      },
      "geometry": {
        "type": "Point",
        "coordinates": [
          2.653821153581904,
          -59.56161880562185
        ]
      }
    },
    {
      "type": "Feature",
      "properties": {
        "norad_id": 32357,
        "name": "FENGYUN 1C DEB",
        "group": "fengyun-1c-debris",
        "lat": 81.10337645442972,
        "lon": -71.55527224163109,
        "alt_km": 1074.76811789784,
        "timestamp": "2025-12-09T16:56:36.861092+00:00",
        "meta_object_name": "FENGYUN 1C DEB",
        "meta_object_id": "1999-025CZA",
        "meta_epoch": "2025-12-03T20:59:33.570240",
        "meta_mean_motion": 13.68494988,
        "meta_eccentricity": 0.0493325,
        "meta_inclination": 98.8601,
        "meta_ra_of_asc_node": 17.9025,
        "meta_arg_of_pericenter": 211.2254,
        "meta_mean_anomaly": 330.7935,
        "meta_ephemeris_type": 0,
        "meta_classification_type": "U",
        "meta_norad_cat_id": 32357,
        "meta_element_set_no": 999,
        "meta_rev_at_epoch": 66666,
        "meta_bstar": 0.0053758,
        "meta_mean_motion_dot": 0.00010819,
        "meta_mean_motion_ddot": 0,
        "tle_line1": "1 32357U 99025CZA 25337.87469410  .00010819  00000+0  53758-2 0  9992",
        "tle_line2": "2 32357  98.8601  17.9025 0493325 211.2254 330.7935 13.68494988666661"
      },
      "geometry": {
        "type": "Point",
        "coordinates": [
          -71.55527224163109,
          81.10337645442972
        ]
      }
    },
    {
      "type": "Feature",
      "properties": {
        "norad_id": 32361,
        "name": "FENGYUN 1C DEB",
        "group": "fengyun-1c-debris",
        "lat": -11.045490917413373,
        "lon": -139.26235018303964,
        "alt_km": 750.9264537316003,
        "timestamp": "2025-12-09T16:56:36.861103+00:00",
        "meta_object_name": "FENGYUN 1C DEB",
        "meta_object_id": "1999-025CZE",
        "meta_epoch": "2025-12-07T09:27:11.040192",
        "meta_mean_motion": 14.50921559,
        "meta_eccentricity": 0.00465385,
        "meta_inclination": 98.862,
        "meta_ra_of_asc_node": 40.0488,
        "meta_arg_of_pericenter": 60.7634,
        "meta_mean_anomaly": 299.82,
        "meta_ephemeris_type": 0,
        "meta_classification_type": "U",
        "meta_norad_cat_id": 32361,
        "meta_element_set_no": 999,
        "meta_rev_at_epoch": 96267,
        "meta_bstar": 0.0030087912,
        "meta_mean_motion_dot": 0.00012017,
        "meta_mean_motion_ddot": 0,
        "tle_line1": "1 32361U 99025CZE 25341.39387778  .00012017  00000+0  30088-2 0  9998",
        "tle_line2": "2 32361  98.8620  40.0488 0046538  60.7634 299.8200 14.50921559962677"
      },
      "geometry": {
        "type": "Point",
        "coordinates": [
          -139.26235018303964,
          -11.045490917413373
        ]
      }
    },
    {
      "type": "Feature",
      "properties": {
        "norad_id": 32362,
        "name": "FENGYUN 1C DEB",
        "group": "fengyun-1c-debris",
        "lat": 60.70340512345399,
        "lon": -63.19046831195598,
        "alt_km": 1136.8621295798985,
        "timestamp": "2025-12-09T16:56:36.861113+00:00",
        "meta_object_name": "FENGYUN 1C DEB",
        "meta_object_id": "1999-025CZF",
        "meta_epoch": "2025-12-07T15:23:15.342720",
        "meta_mean_motion": 13.65140835,
        "meta_eccentricity": 0.02754875,
        "meta_inclination": 99.8447,
        "meta_ra_of_asc_node": 312.7403,
        "meta_arg_of_pericenter": 298.1645,
        "meta_mean_anomaly": 59.1918,
        "meta_ephemeris_type": 0,
        "meta_classification_type": "U",
        "meta_norad_cat_id": 32362,
        "meta_element_set_no": 999,
        "meta_rev_at_epoch": 91060,
        "meta_bstar": 0.0060602721,
        "meta_mean_motion_dot": 6.323e-05,
        "meta_mean_motion_ddot": 0,
        "tle_line1": "1 32362U 99025CZF 25341.64114980  .00006323  00000+0  60603-2 0  9999",
        "tle_line2": "2 32362  99.8447 312.7403 0275487 298.1645  59.1918 13.65140835910602"
      },
      "geometry": {
        "type": "Point",
        "coordinates": [
          -63.19046831195598,
          60.70340512345399
        ]
      }
    },
    {
      "type": "Feature",
      "properties": {
        "norad_id": 32363,
        "name": "FENGYUN 1C DEB",
        "group": "fengyun-1c-debris",
        "lat": -30.641985044922667,
        "lon": -53.79347610217169,
        "alt_km": 475.6438882888797,
        "timestamp": "2025-12-09T16:56:36.861123+00:00",
        "meta_object_name": "FENGYUN 1C DEB",
        "meta_object_id": "1999-025CZG",
        "meta_epoch": "2025-12-09T03:06:20.526336",
        "meta_mean_motion": 15.46742638,
        "meta_eccentricity": 0.00643231,
        "meta_inclination": 98.3322,
        "meta_ra_of_asc_node": 300.5629,
        "meta_arg_of_pericenter": 153.2986,
        "meta_mean_anomaly": 207.1598,
        "meta_ephemeris_type": 0,
        "meta_classification_type": "U",
        "meta_norad_cat_id": 32363,
        "meta_element_set_no": 999,
        "meta_rev_at_epoch": 96752,
        "meta_bstar": 0.001951823,
        "meta_mean_motion_dot": 0.00106978,
        "meta_mean_motion_ddot": 0,
        "tle_line1": "1 32363U 99025CZG 25343.12940424  .00106978  00000+0  19518-2 0  9991",
        "tle_line2": "2 32363  98.3322 300.5629 0064323 153.2986 207.1598 15.46742638967520"
      },
      "geometry": {
        "type": "Point",
        "coordinates": [
          -53.79347610217169,
          -30.641985044922667
        ]
      }
    }
  ]
}